{"type": "FeatureCollection", "features": [{"type": "Feature", "properties": {"nombre": "Lago Caburga (espejo aprox, DEM<=474m)"}, "geometry": {"type": "Polygon", "coordinates": [[[-71.74, -39.20583333333334], [-71.74527777777777, -39.20722222222223], [-71.74805555555555, -39.209722222222226], [-71.74722222222222, -39.21055555555556], [-71.74805555555555, -39.21138888888889], [-71.75166666666667, -39.21027777777778], [-71.75333333333333, -39.215], [-71.75861111111111, -39.220555555555556], [-71.76194444444444, -39.23027777777778], [-71.76666666666667, -39.23527777777778], [-71.76694444444445, -39.239444444444445], [-71.77055555555556, -39.24277777777778], [-71.77888888888889, -39.2475], [-71.78861111111111, -39.2475], [-71.79055555555556, -39.24916666666667], [-71.79416666666667, -39.24722222222223], [-71.80472222222222, -39.248333333333335], [-71.81055555555555, -39.242222222222225], [-71.81055555555555, -39.23861111111111], [-71.81222222222222, -39.23638888888889], [-71.81138888888889, -39.23388888888889], [-71.815, -39.22805555555556], [-71.81472222222222, -39.22666666666667], [-71.8125, -39.225833333333334], [-71.81333333333333, -39.224722222222226], [-71.81138888888889, -39.223888888888894], [-71.81166666666667, -39.221111111111114], [-71.8075, -39.21416666666667], [-71.80888888888889, -39.213055555555556], [-71.80888888888889, -39.215], [-71.81166666666667, -39.21555555555556], [-71.81111111111112, -39.21416666666667], [-71.81277777777778, -39.21333333333334], [-71.81333333333333, -39.208333333333336], [-71.81611111111111, -39.20944444444445], [-71.81583333333333, -39.21027777777778], [-71.81694444444445, -39.20888888888889], [-71.82222222222222, -39.20888888888889], [-71.82222222222222, -39.20944444444445], [-71.8225, -39.20944444444445], [-71.8225, -39.209722222222226], [-71.82277777777777, -39.209722222222226], [-71.82416666666667, -39.208333333333336], [-71.825, -39.209722222222226], [-71.82333333333334, -39.21027777777778], [-71.8261111111111, -39.21027777777778], [-71.82861111111112, -39.20805555555556], [-71.82972222222222, -39.20888888888889], [-71.82916666666667, -39.21], [-71.83055555555555, -39.21], [-71.83111111111111, -39.21333333333334], [-71.83666666666667, -39.21666666666667], [-71.84833333333333, -39.215], [-71.85, -39.21611111111111], [-71.85444444444444, -39.224444444444444], [-71.85388888888889, -39.225277777777784], [-71.85694444444444, -39.228611111111114], [-71.85583333333334, -39.23305555555556], [-71.86, -39.23861111111111], [-71.86, -39.265], [-71.76916666666666, -39.265], [-71.76722222222222, -39.25916666666667], [-71.765, -39.25694444444445], [-71.75833333333333, -39.254444444444445], [-71.75583333333333, -39.25166666666667], [-71.75666666666666, -39.25055555555556], [-71.75, -39.24527777777778], [-71.75138888888888, -39.243611111111115], [-71.74972222222222, -39.24111111111112], [-71.75083333333333, -39.24], [-71.74861111111112, -39.23777777777778], [-71.74, -39.235], [-71.74, -39.20583333333334]], [[-71.74222222222222, -39.208333333333336], [-71.74166666666666, -39.20805555555556], [-71.74166666666666, -39.208333333333336], [-71.74222222222222, -39.208333333333336]], [[-71.81777777777778, -39.20944444444445], [-71.8175, -39.20916666666667], [-71.8175, -39.20944444444445], [-71.81777777777778, -39.20944444444445]], [[-71.82305555555556, -39.21], [-71.82277777777777, -39.209722222222226], [-71.82277777777777, -39.21], [-71.82305555555556, -39.21]], [[-71.82861111111112, -39.21055555555556], [-71.82833333333333, -39.21], [-71.82833333333333, -39.21055555555556], [-71.82861111111112, -39.21055555555556]], [[-71.82722222222222, -39.21083333333333], [-71.82666666666667, -39.21027777777778], [-71.82666666666667, -39.21055555555556], [-71.82722222222222, -39.21083333333333]], [[-71.82416666666667, -39.211111111111116], [-71.82333333333334, -39.21055555555556], [-71.82333333333334, -39.211111111111116], [-71.82416666666667, -39.211111111111116]], [[-71.83, -39.211111111111116], [-71.82972222222222, -39.21083333333333], [-71.82972222222222, -39.211111111111116], [-71.83, -39.211111111111116]], [[-71.8411111111111, -39.21638888888889], [-71.84083333333334, -39.21611111111111], [-71.84083333333334, -39.21638888888889], [-71.8411111111111, -39.21638888888889]], [[-71.84277777777778, -39.2175], [-71.84055555555555, -39.219722222222224], [-71.84361111111112, -39.22083333333334], [-71.84361111111112, -39.21805555555556], [-71.84277777777778, -39.2175]], [[-71.84083333333334, -39.218333333333334], [-71.84055555555555, -39.21805555555556], [-71.84055555555555, -39.218333333333334], [-71.84083333333334, -39.218333333333334]], [[-71.83694444444444, -39.22027777777778], [-71.83638888888889, -39.219722222222224], [-71.83611111111111, -39.22027777777778], [-71.83694444444444, -39.22027777777778]], [[-71.75777777777778, -39.251111111111115], [-71.75694444444444, -39.25055555555556], [-71.75722222222223, -39.25138888888889], [-71.75777777777778, -39.251111111111115]]]}}]}